STARLINK-36139          
1 66966U 25288H   25353.74268010 -.00066137  00000+0 -29390-3 0  9994
2 66966  43.0010 124.2538 0001959 280.9041  79.1611 15.83410061  2956
STARLINK-36136          
1 66967U 25288J   25353.61613170 -.00300264  00000+0 -13646-2 0  9990
2 66967  43.0013 125.0249 0002914 249.6494 110.4066 15.83626352  2937
STARLINK-36152          
1 66968U 25288K   25353.74187365 -.00413243  00000+0 -19503-2 0  9997
2 66968  43.0011 124.2463 0002296 294.3972  65.6660 15.83117105  2950
STARLINK-36149          
1 66969U 25288L   25353.67669606  .00081756  00000+0  35800-3 0  9990
2 66969  43.0013 124.6172 0002038 225.9465 134.1239 15.83677770  2947
STARLINK-35703          
1 66970U 25288M   25353.67508002 -.00075382  00000+0 -33389-3 0  9994
2 66970  43.0009 124.6030 0001878 275.4876  84.5782 15.83522260  2948
STARLINK-35678          
1 66971U 25288N   25353.61536832 -.00534508  00000+0 -25108-2 0  9990
2 66971  43.0016 125.0180 0002123 252.0440 108.0201 15.83510193  2939
STARLINK-34846          
1 66972U 25288P   25353.74106706  .00077176  00000+0  34080-3 0  9999
2 66972  43.0016 124.2401 0002170 288.4953  71.5683 15.83519621  2956
STARLINK-35778          
1 66973U 25288Q   25353.67756010 -.00034364  00000+0 -14959-3 0  9998
2 66973  43.0013 124.6242 0001879 279.2381  80.8279 15.83603582  2942
STARLINK-35780          
1 66974U 25288R   25353.61409192 -.00541042  00000+0 -25482-2 0  9997
2 66974  43.0017 125.0086 0004312 314.1544  45.8973 15.83450280  2939
STARLINK-35777          
1 66975U 25288S   25353.55017461 -.00527842  00000+0 -24503-2 0  9990
2 66975  43.0015 125.3888 0003315 266.6786  93.3707 15.83731621  2925
STARLINK-35772          
1 66976U 25288T   25353.75958595 -.01016637  00000+0 -81992-2 0  9996
2 66976  43.0018 124.3917 0005581 228.9492 131.0894 15.72395556  2954
STARLINK-35770          
1 66977U 25288U   25353.54970615 -.00482653  00000+0 -22363-2 0  9992
2 66977  43.0014 125.3851 0002220 252.5865 107.4765 15.83672083  2929
