CCSDS_OMM_VERS = 2.0
CREATION_DATE  = 
ORIGINATOR     = 

OBJECT_NAME    = STARLINK-36139
OBJECT_ID      = 2025-288H
CENTER_NAME    = EARTH
REF_FRAME      = TEME
TIME_SYSTEM    = UTC
MEAN_ELEMENT_THEORY = SGP/SGP4

EPOCH          = 2025-12-19T17:49:27.560640
MEAN_MOTION    = 15.83410061
ECCENTRICITY   = .0001959
INCLINATION    = 43.0010
RA_OF_ASC_NODE = 124.2538
ARG_OF_PERICENTER = 280.9041
MEAN_ANOMALY   = 79.1611

EPHEMERIS_TYPE = 0
CLASSIFICATION_TYPE = U
NORAD_CAT_ID   = 66966
ELEMENT_SET_NO = 999
REV_AT_EPOCH   = 295
BSTAR          = -.2939E-3
MEAN_MOTION_DOT = -.66137E-3
MEAN_MOTION_DDOT = 0

CCSDS_OMM_VERS = 2.0
CREATION_DATE  = 
ORIGINATOR     = 

OBJECT_NAME    = STARLINK-36136
OBJECT_ID      = 2025-288J
CENTER_NAME    = EARTH
REF_FRAME      = TEME
TIME_SYSTEM    = UTC
MEAN_ELEMENT_THEORY = SGP/SGP4

EPOCH          = 2025-12-19T14:47:13.778880
MEAN_MOTION    = 15.83626352
ECCENTRICITY   = .0002914
INCLINATION    = 43.0013
RA_OF_ASC_NODE = 125.0249
ARG_OF_PERICENTER = 249.6494
MEAN_ANOMALY   = 110.4066

EPHEMERIS_TYPE = 0
CLASSIFICATION_TYPE = U
NORAD_CAT_ID   = 66967
ELEMENT_SET_NO = 999
REV_AT_EPOCH   = 293
BSTAR          = -.13646E-2
MEAN_MOTION_DOT = -.300264E-2
MEAN_MOTION_DDOT = 0

CCSDS_OMM_VERS = 2.0
CREATION_DATE  = 
ORIGINATOR     = 

OBJECT_NAME    = STARLINK-36152
OBJECT_ID      = 2025-288K
CENTER_NAME    = EARTH
REF_FRAME      = TEME
TIME_SYSTEM    = UTC
MEAN_ELEMENT_THEORY = SGP/SGP4

EPOCH          = 2025-12-19T17:48:17.883360
MEAN_MOTION    = 15.83117105
ECCENTRICITY   = .0002296
INCLINATION    = 43.0011
RA_OF_ASC_NODE = 124.2463
ARG_OF_PERICENTER = 294.3972
MEAN_ANOMALY   = 65.6660

EPHEMERIS_TYPE = 0
CLASSIFICATION_TYPE = U
NORAD_CAT_ID   = 66968
ELEMENT_SET_NO = 999
REV_AT_EPOCH   = 295
BSTAR          = -.19503E-2
MEAN_MOTION_DOT = -.413243E-2
MEAN_MOTION_DDOT = 0

CCSDS_OMM_VERS = 2.0
CREATION_DATE  = 
ORIGINATOR     = 

OBJECT_NAME    = STARLINK-36149
OBJECT_ID      = 2025-288L
CENTER_NAME    = EARTH
REF_FRAME      = TEME
TIME_SYSTEM    = UTC
MEAN_ELEMENT_THEORY = SGP/SGP4

EPOCH          = 2025-12-19T16:14:26.539584
MEAN_MOTION    = 15.83677770
ECCENTRICITY   = .0002038
INCLINATION    = 43.0013
RA_OF_ASC_NODE = 124.6172
ARG_OF_PERICENTER = 225.9465
MEAN_ANOMALY   = 134.1239

EPHEMERIS_TYPE = 0
CLASSIFICATION_TYPE = U
NORAD_CAT_ID   = 66969
ELEMENT_SET_NO = 999
REV_AT_EPOCH   = 294
BSTAR          = .358E-3
MEAN_MOTION_DOT = .81756E-3
MEAN_MOTION_DDOT = 0

CCSDS_OMM_VERS = 2.0
CREATION_DATE  = 
ORIGINATOR     = 

OBJECT_NAME    = STARLINK-35703
OBJECT_ID      = 2025-288M
CENTER_NAME    = EARTH
REF_FRAME      = TEME
TIME_SYSTEM    = UTC
MEAN_ELEMENT_THEORY = SGP/SGP4

EPOCH          = 2025-12-19T16:12:06.913728
MEAN_MOTION    = 15.83522260
ECCENTRICITY   = .0001878
INCLINATION    = 43.0009
RA_OF_ASC_NODE = 124.6030
ARG_OF_PERICENTER = 275.4876
MEAN_ANOMALY   = 84.5782

EPHEMERIS_TYPE = 0
CLASSIFICATION_TYPE = U
NORAD_CAT_ID   = 66970
ELEMENT_SET_NO = 999
REV_AT_EPOCH   = 294
BSTAR          = -.33389E-3
MEAN_MOTION_DOT = -.75382E-3
MEAN_MOTION_DDOT = 0

CCSDS_OMM_VERS = 2.0
CREATION_DATE  = 
ORIGINATOR     = 

OBJECT_NAME    = STARLINK-35678
OBJECT_ID      = 2025-288N
CENTER_NAME    = EARTH
REF_FRAME      = TEME
TIME_SYSTEM    = UTC
MEAN_ELEMENT_THEORY = SGP/SGP4

EPOCH          = 2025-12-19T14:46:07.822848
MEAN_MOTION    = 15.83510193
ECCENTRICITY   = .0002123
INCLINATION    = 43.0016
RA_OF_ASC_NODE = 125.0180
ARG_OF_PERICENTER = 252.0440
MEAN_ANOMALY   = 108.0201

EPHEMERIS_TYPE = 0
CLASSIFICATION_TYPE = U
NORAD_CAT_ID   = 66971
ELEMENT_SET_NO = 999
REV_AT_EPOCH   = 293
BSTAR          = -.25108E-2
MEAN_MOTION_DOT = -.534508E-2
MEAN_MOTION_DDOT = 0

CCSDS_OMM_VERS = 2.0
CREATION_DATE  = 
ORIGINATOR     = 

OBJECT_NAME    = STARLINK-34846
OBJECT_ID      = 2025-288P
CENTER_NAME    = EARTH
REF_FRAME      = TEME
TIME_SYSTEM    = UTC
MEAN_ELEMENT_THEORY = SGP/SGP4

EPOCH          = 2025-12-19T17:47:08.193984
MEAN_MOTION    = 15.83519621
ECCENTRICITY   = .000217
INCLINATION    = 43.0016
RA_OF_ASC_NODE = 124.2401
ARG_OF_PERICENTER = 288.4953
MEAN_ANOMALY   = 71.5683

EPHEMERIS_TYPE = 0
CLASSIFICATION_TYPE = U
NORAD_CAT_ID   = 66972
ELEMENT_SET_NO = 999
REV_AT_EPOCH   = 295
BSTAR          = .3408E-3
MEAN_MOTION_DOT = .77176E-3
MEAN_MOTION_DDOT = 0

CCSDS_OMM_VERS = 2.0
CREATION_DATE  = 
ORIGINATOR     = 

OBJECT_NAME    = STARLINK-35778
OBJECT_ID      = 2025-288Q
CENTER_NAME    = EARTH
REF_FRAME      = TEME
TIME_SYSTEM    = UTC
MEAN_ELEMENT_THEORY = SGP/SGP4

EPOCH          = 2025-12-19T16:15:41.192640
MEAN_MOTION    = 15.83603582
ECCENTRICITY   = .0001879
INCLINATION    = 43.0013
RA_OF_ASC_NODE = 124.6242
ARG_OF_PERICENTER = 279.2381
MEAN_ANOMALY   = 80.8279

EPHEMERIS_TYPE = 0
CLASSIFICATION_TYPE = U
NORAD_CAT_ID   = 66973
ELEMENT_SET_NO = 999
REV_AT_EPOCH   = 294
BSTAR          = -.14959E-3
MEAN_MOTION_DOT = -.34364E-3
MEAN_MOTION_DDOT = 0

CCSDS_OMM_VERS = 2.0
CREATION_DATE  = 
ORIGINATOR     = 

OBJECT_NAME    = STARLINK-35780
OBJECT_ID      = 2025-288R
CENTER_NAME    = EARTH
REF_FRAME      = TEME
TIME_SYSTEM    = UTC
MEAN_ELEMENT_THEORY = SGP/SGP4

EPOCH          = 2025-12-19T14:44:17.541888
MEAN_MOTION    = 15.83450280
ECCENTRICITY   = .0004312
INCLINATION    = 43.0017
RA_OF_ASC_NODE = 125.0086
ARG_OF_PERICENTER = 314.1544
MEAN_ANOMALY   = 45.8973

EPHEMERIS_TYPE = 0
CLASSIFICATION_TYPE = U
NORAD_CAT_ID   = 66974
ELEMENT_SET_NO = 999
REV_AT_EPOCH   = 293
BSTAR          = -.25482E-2
MEAN_MOTION_DOT = -.541042E-2
MEAN_MOTION_DDOT = 0

CCSDS_OMM_VERS = 2.0
CREATION_DATE  = 
ORIGINATOR     = 

OBJECT_NAME    = STARLINK-35777
OBJECT_ID      = 2025-288S
CENTER_NAME    = EARTH
REF_FRAME      = TEME
TIME_SYSTEM    = UTC
MEAN_ELEMENT_THEORY = SGP/SGP4

EPOCH          = 2025-12-19T13:12:15.086304
MEAN_MOTION    = 15.83731621
ECCENTRICITY   = .0003315
INCLINATION    = 43.0015
RA_OF_ASC_NODE = 125.3888
ARG_OF_PERICENTER = 266.6786
MEAN_ANOMALY   = 93.3707

EPHEMERIS_TYPE = 0
CLASSIFICATION_TYPE = U
NORAD_CAT_ID   = 66975
ELEMENT_SET_NO = 999
REV_AT_EPOCH   = 292
BSTAR          = -.24503E-2
MEAN_MOTION_DOT = -.527842E-2
MEAN_MOTION_DDOT = 0

CCSDS_OMM_VERS = 2.0
CREATION_DATE  = 
ORIGINATOR     = 

OBJECT_NAME    = STARLINK-35772
OBJECT_ID      = 2025-288T
CENTER_NAME    = EARTH
REF_FRAME      = TEME
TIME_SYSTEM    = UTC
MEAN_ELEMENT_THEORY = SGP/SGP4

EPOCH          = 2025-12-19T18:13:48.226080
MEAN_MOTION    = 15.72395556
ECCENTRICITY   = .0005581
INCLINATION    = 43.0018
RA_OF_ASC_NODE = 124.3917
ARG_OF_PERICENTER = 228.9492
MEAN_ANOMALY   = 131.0894

EPHEMERIS_TYPE = 0
CLASSIFICATION_TYPE = U
NORAD_CAT_ID   = 66976
ELEMENT_SET_NO = 999
REV_AT_EPOCH   = 295
BSTAR          = -.81992E-2
MEAN_MOTION_DOT = -.1016637E-1
MEAN_MOTION_DDOT = 0

CCSDS_OMM_VERS = 2.0
CREATION_DATE  = 
ORIGINATOR     = 

OBJECT_NAME    = STARLINK-35770
OBJECT_ID      = 2025-288U
CENTER_NAME    = EARTH
REF_FRAME      = TEME
TIME_SYSTEM    = UTC
MEAN_ELEMENT_THEORY = SGP/SGP4

EPOCH          = 2025-12-19T13:11:34.611360
MEAN_MOTION    = 15.83672083
ECCENTRICITY   = .000222
INCLINATION    = 43.0014
RA_OF_ASC_NODE = 125.3851
ARG_OF_PERICENTER = 252.5865
MEAN_ANOMALY   = 107.4765

EPHEMERIS_TYPE = 0
CLASSIFICATION_TYPE = U
NORAD_CAT_ID   = 66977
ELEMENT_SET_NO = 999
REV_AT_EPOCH   = 292
BSTAR          = -.22363E-2
MEAN_MOTION_DOT = -.482653E-2
MEAN_MOTION_DDOT = 0

